[{"OBJECT_NAME":"TRANSPORTER-12 OBJECT AZ","OBJECT_ID":"2025-009AZ","EPOCH":"2026-03-09T17:02:46.667040","MEAN_MOTION":15.30349724,"ECCENTRICITY":9.87e-5,"INCLINATION":97.3981,"RA_OF_ASC_NODE":151.9913,"ARG_OF_PERICENTER":45.3581,"MEAN_ANOMALY":314.774,"EPHEMERIS_TYPE":0,"CLASSIFICATION_TYPE":"U","NORAD_CAT_ID":62656,"ELEMENT_SET_NO":999,"REV_AT_EPOCH":6379,"BSTAR":0.00054902545,"MEAN_MOTION_DOT":0.00016057,"MEAN_MOTION_DDOT":0},{"OBJECT_NAME":"STARLINK-34672","OBJECT_ID":"2025-224N","EPOCH":"2026-03-09T02:36:14.972832","MEAN_MOTION":15.30204692,"ECCENTRICITY":5.318e-5,"INCLINATION":53.1616,"RA_OF_ASC_NODE":14.1636,"ARG_OF_PERICENTER":91.8621,"MEAN_ANOMALY":268.2441,"EPHEMERIS_TYPE":0,"CLASSIFICATION_TYPE":"U","NORAD_CAT_ID":65894,"ELEMENT_SET_NO":999,"REV_AT_EPOCH":2478,"BSTAR":0.0008514544,"MEAN_MOTION_DOT":0.00024947,"MEAN_MOTION_DDOT":0}]
