TRANSPORTER-12 OBJECT AZ
1 62656U 25009AZ  26068.71026235  .00016057  00000+0  54903-3 0  9991
2 62656  97.3981 151.9913 0000987  45.3581 314.7740 15.30349724 63792
STARLINK-34672          
1 65894U 25224N   26068.10850663  .00024947  00000+0  85145-3 0  9999
2 65894  53.1616  14.1636 0000531  91.8621 268.2441 15.30204692 24783
